NORAD_CAT_ID,OBJECT_NAME,OBJECT_TYPE,EPOCH,MEAN_MOTION,ECCENTRICITY,INCLINATION,RA_OF_ASC_NODE,ARG_OF_PERICENTER,MEAN_ANOMALY,BSTAR,MEAN_MOTION_DOT,MEAN_MOTION_DDOT,TLE_LINE0,TLE_LINE1,TLE_LINE2,SEMIMAJOR_AXIS,PERIOD,APOGEE,PERIGEE,DECAYED
52847.0,STARLINK-4206,PAYLOAD,2024-06-19 11:49:09,15.08831683,0.0001678,53.2215,334.2115,102.6824,257.4356,1.4997e-05,-4.9e-07,0.0,0 STARLINK-4206,1 52847U 22062T   24171.49247664 -.00000049  00000-0  14997-4 0  9993,2 52847  53.2215 334.2115 0001678 102.6824 257.4356 15.08831683110951,6917.906,95.438,540.932,538.61,0.0
52847.0,STARLINK-4206,PAYLOAD,2024-06-19 18:10:42,15.08833717,0.000145,53.2207,333.0192,93.2729,266.8429,1.6936e-05,-1.8e-07,0.0,0 STARLINK-4206,1 52847U 22062T   24171.75743606 -.00000018  00000-0  16936-4 0  9990,2 52847  53.2207 333.0192 0001450  93.2729 266.8429 15.08833717110990,6917.9,95.438,540.768,538.761,0.0
52847.0,STARLINK-4206,PAYLOAD,2024-06-20 03:43:00,15.08846389,0.0001462,53.2203,331.2333,81.3905,278.7253,3.9457e-05,3.4e-06,0.0,0 STARLINK-4206,1 52847U 22062T   24172.15486774  .00000340  00000-0  39457-4 0  9995,2 52847  53.2203 331.2333 0001462  81.3905 278.7253 15.08846389111548,6917.861,95.437,540.737,538.714,0.0
52847.0,STARLINK-4206,PAYLOAD,2024-06-20 14:50:43,15.08832683,0.0001534,53.2197,329.1547,91.1343,268.9825,5.1737e-05,5.35e-06,0.0,0 STARLINK-4206,1 52847U 22062T   24172.61855708  .00000535  00000-0  51737-4 0  9994,2 52847  53.2197 329.1547 0001534  91.1343 268.9825 15.08832683111120,6917.903,95.438,540.829,538.707,0.0
52847.0,STARLINK-4206,PAYLOAD,2024-06-20 18:01:29,15.08836887,0.00013,53.2186,328.5583,89.5714,270.5427,3.8451e-05,3.24e-06,0.0,0 STARLINK-4206,1 52847U 22062T   24172.75103451  .00000324  00000-0  38451-4 0  9994,2 52847  53.2186 328.5583 0001300  89.5714 270.5427 15.08836887111638,6917.89,95.438,540.654,538.856,0.0
52847.0,STARLINK-4206,PAYLOAD,2024-06-21 14:41:30,15.08835895,0.0001329,53.2191,324.6931,92.0557,268.0587,9.1507e-05,1.169e-05,0.0,0 STARLINK-4206,1 52847U 22062T   24173.61215498  .00001169  00000-0  91507-4 0  9994,2 52847  53.2191 324.6931 0001329  92.0557 268.0587 15.08835895111270,6917.893,95.438,540.677,538.839,0.0
52847.0,STARLINK-4206,PAYLOAD,2024-06-21 17:52:16,15.08839802,0.0001259,53.2185,324.098,88.5535,271.5601,6.1215e-05,6.86e-06,0.0,0 STARLINK-4206,1 52847U 22062T   24173.74463368  .00000686  00000-0  61215-4 0  9995,2 52847  53.2185 324.0980 0001259  88.5535 271.5601 15.08839802111299,6917.881,95.438,540.617,538.875,0.0
52847.0,STARLINK-4206,PAYLOAD,2024-06-22 14:32:17,15.08837257,0.0001277,53.2183,320.2323,84.4321,275.6817,5.4008e-05,5.72e-06,0.0,0 STARLINK-4206,1 52847U 22062T   24174.60575579  .00000572  00000-0  54008-4 0  9995,2 52847  53.2183 320.2323 0001277  84.4321 275.6817 15.08837257111425,6917.889,95.438,540.637,538.87,0.0
52847.0,STARLINK-4206,PAYLOAD,2024-06-22 19:18:26,15.08843166,0.0001378,53.2189,319.3387,75.1684,284.9461,4.5392e-05,4.35e-06,0.0,0 STARLINK-4206,1 52847U 22062T   24174.80447284  .00000435  00000-0  45392-4 0  9992,2 52847  53.2189 319.3387 0001378  75.1684 284.9461 15.08843166111942,6917.871,95.437,540.689,538.782,0.0
52847.0,STARLINK-4206,PAYLOAD,2024-06-23 14:23:04,15.08841344,0.0001267,53.2185,315.7692,91.3187,268.795,4.3064e-05,3.98e-06,0.0,0 STARLINK-4206,1 52847U 22062T   24175.59935248  .00000398  00000-0  43064-4 0  9993,2 52847  53.2185 315.7692 0001267  91.3187 268.7950 15.08841344111570,6917.876,95.437,540.618,538.865,0.0
52847.0,STARLINK-4206,PAYLOAD,2024-06-23 15:58:27,15.08841628,0.0001267,53.2185,315.4719,90.4266,269.6871,4.4331e-05,4.18e-06,0.0,0 STARLINK-4206,1 52847U 22062T   24175.66559225  .00000418  00000-0  44331-4 0  9999,2 52847  53.2185 315.4719 0001267  90.4266 269.6871 15.08841628111583,6917.875,95.437,540.617,538.864,0.0
52847.0,STARLINK-4206,PAYLOAD,2024-06-24 12:38:28,15.08838224,0.0001276,53.2189,311.6059,97.9205,262.1932,5.8907e-06,-1.94e-06,0.0,0 STARLINK-4206,1 52847U 22062T   24176.52671495 -.00000194  00000-0  58907-5 0  9996,2 52847  53.2189 311.6059 0001276  97.9205 262.1932 15.08838224112201,6917.886,95.438,540.634,538.868,0.0
52847.0,STARLINK-4206,PAYLOAD,2024-06-24 14:13:51,15.08838005,0.0001248,53.2185,311.3084,94.2883,265.8251,4.1985e-06,-2.21e-06,0.0,0 STARLINK-4206,1 52847U 22062T   24176.59295524 -.00000221  00000-0  41985-5 0  9997,2 52847  53.2185 311.3084 0001248  94.2883 265.8251 15.08838005111720,6917.886,95.438,540.615,538.888,0.0
52847.0,STARLINK-4206,PAYLOAD,2024-06-24 15:49:14,15.08837938,0.0001245,53.2185,311.0111,94.0499,266.0635,3.1046e-06,-2.38e-06,0.0,0 STARLINK-4206,1 52847U 22062T   24176.65919535 -.00000238  00000-0  31046-5 0  9994,2 52847  53.2185 311.0111 0001245  94.0499 266.0635 15.08837938111730,6917.887,95.438,540.613,538.89,0.0
52847.0,STARLINK-4206,PAYLOAD,2024-06-25 14:04:38,15.08837271,0.000121,53.2182,306.8478,91.8765,268.2366,-1.06e-05,-4.57e-06,0.0,0 STARLINK-4206,1 52847U 22062T   24177.58655758 -.00000457  00000-0 -10600-4 0  9997,2 52847  53.2182 306.8478 0001210  91.8765 268.2366 15.08837271111878,6917.889,95.438,540.591,538.917,0.0
52847.0,STARLINK-4206,PAYLOAD,2024-06-25 15:40:01,15.08837909,0.0001237,53.2183,306.5505,95.3154,264.7979,-4.3624e-06,-3.57e-06,0.0,0 STARLINK-4206,1 52847U 22062T   24177.65279692 -.00000357  00000-0 -43624-5 0  9996,2 52847  53.2183 306.5505 0001237  95.3154 264.7979 15.08837909112372,6917.887,95.438,540.608,538.896,0.0
52847.0,STARLINK-4206,PAYLOAD,2024-06-26 01:12:19,15.08847503,0.0001259,53.219,304.7706,97.8527,262.2608,7.5336e-05,9.12e-06,0.0,0 STARLINK-4206,1 52847U 22062T   24178.05022846  .00000912  00000-0  75336-4 0  9997,2 52847  53.2190 304.7706 0001259  97.8527 262.2608 15.08847503112438,6917.857,95.437,540.593,538.851,0.0
52847.0,STARLINK-4206,PAYLOAD,2024-06-27 12:10:49,15.08833203,0.0001538,53.2191,298.2368,127.6575,232.4557,2.7256e-05,1.46e-06,0.0,0 STARLINK-4206,1 52847U 22062T   24179.50752142  .00000146  00000-0  27256-4 0  9994,2 52847  53.2191 298.2368 0001538 127.6575 232.4557 15.08833203112653,6917.901,95.438,540.83,538.702,0.0
52847.0,STARLINK-4206,PAYLOAD,2024-06-27 15:21:35,15.08849296,0.0001165,53.2175,297.6396,115.4257,244.6856,-0.00017731,-3.109e-05,0.0,0 STARLINK-4206,1 52847U 22062T   24179.63999944 -.00003109  00000-0 -17731-3 0  9991,2 52847  53.2175 297.6396 0001165 115.4257 244.6856 15.08849296112675,6917.852,95.437,540.523,538.911,0.0
52847.0,STARLINK-4206,PAYLOAD,2024-06-28 00:53:55,15.08828245,0.0001359,53.2181,295.8502,88.1036,272.0112,0.00018274,2.621e-05,0.0,0 STARLINK-4206,1 52847U 22062T   24180.03744258  .00002621  00000-0  18274-3 0  9992,2 52847  53.2181 295.8502 0001359  88.1036 272.0112 15.08828245112735,6917.916,95.438,540.721,538.841,0.0
52847.0,STARLINK-4206,PAYLOAD,2024-06-28 13:36:59,15.08835713,0.0001424,53.217,293.4659,96.4971,263.6184,7.0441e-05,8.33e-06,0.0,0 STARLINK-4206,1 52847U 22062T   24180.56736000  .00000833  00000-0  70441-4 0  9994,2 52847  53.2170 293.4659 0001424  96.4971 263.6184 15.08835713112321,6917.893,95.438,540.744,538.773,0.0
52847.0,STARLINK-4206,PAYLOAD,2024-06-28 15:12:21,15.08853058,0.0001179,53.2171,293.1672,97.6011,262.5115,0.00017933,2.568e-05,0.0,0 STARLINK-4206,1 52847U 22062T   24180.63358646  .00002568  00000-0  17933-3 0  9991,2 52847  53.2171 293.1672 0001179  97.6011 262.5115 15.08853058112828,6917.84,95.437,540.521,538.89,0.0
52847.0,STARLINK-4206,PAYLOAD,2024-06-29 00:44:39,15.08863129,0.0001436,53.2177,291.3823,74.4197,285.6954,0.00024523,3.619e-05,0.0,0 STARLINK-4206,1 52847U 22062T   24181.03101455  .00003619  00000-0  24523-3 0  9991,2 52847  53.2177 291.3823 0001436  74.4197 285.6954 15.08863129112889,6917.81,95.436,540.668,538.681,0.0
52847.0,STARLINK-4206,PAYLOAD,2024-06-29 13:27:48,15.08821622,0.0001445,53.2168,289.0097,73.9027,286.2124,-0.00010163,-1.904e-05,0.0,0 STARLINK-4206,1 52847U 22062T   24181.56097423 -.00001904  00000-0 -10163-3 0  9990,2 52847  53.2168 289.0097 0001445  73.9027 286.2124 15.08821622112969,6917.937,95.439,540.801,538.802,0.0
52847.0,STARLINK-4206,PAYLOAD,2024-06-29 16:38:33,15.0883082,0.000124,53.2174,288.4103,86.9667,273.1467,-2.6472e-05,-7.09e-06,0.0,0 STARLINK-4206,1 52847U 22062T   24181.69344614 -.00000709  00000-0 -26472-4 0  9994,2 52847  53.2174 288.4103 0001240  86.9667 273.1467 15.08830820112981,6917.908,95.438,540.631,538.916,0.0
52847.0,STARLINK-4206,PAYLOAD,2024-06-30 13:18:34,15.08843305,0.0001261,53.2168,284.5486,88.1895,271.9242,-0.00010864,-2.017e-05,0.0,0 STARLINK-4206,1 52847U 22062T   24182.55456532 -.00002017  00000-0 -10864-3 0  9994,2 52847  53.2168 284.5486 0001261  88.1895 271.9242 15.08843305113110,6917.87,95.437,540.608,538.863,0.0
52847.0,STARLINK-4206,PAYLOAD,2024-07-01 00:26:15,15.08858117,0.0001571,53.2188,282.4643,71.9406,288.1758,-5.5443e-05,-1.171e-05,0.0,0 STARLINK-4206,1 52847U 22062T   24183.01823221 -.00001171  00000-0 -55443-4 0  9992,2 52847  53.2188 282.4643 0001571  71.9406 288.1758 15.08858117113182,6917.825,95.436,540.777,538.603,0.0
52847.0,STARLINK-4206,PAYLOAD,2024-07-01 13:09:21,15.08826242,0.0001545,53.2175,280.0888,75.1678,284.9485,0.00014425,2.008e-05,0.0,0 STARLINK-4206,1 52847U 22062T   24183.54816709  .00002008  00000-0  14425-3 0  9995,2 52847  53.2175 280.0888 0001545  75.1678 284.9485 15.08826242113265,6917.922,95.438,540.856,538.719,0.0
52847.0,STARLINK-4206,PAYLOAD,2024-07-01 16:20:07,15.08834527,0.0001224,53.2176,279.4905,87.8077,272.3055,0.00011823,1.594e-05,0.0,0 STARLINK-4206,1 52847U 22062T   24183.68064268  .00001594  00000-0  11823-3 0  9993,2 52847  53.2176 279.4905 0001224  87.8077 272.3055 15.08834527113286,6917.897,95.438,540.609,538.915,0.0
52847.0,STARLINK-4206,PAYLOAD,2024-07-02 13:00:08,15.08835945,0.0001209,53.217,275.624,74.02,286.0925,-2.2012e-05,-6.38e-06,0.0,0 STARLINK-4206,1 52847U 22062T   24184.54176989 -.00000638  00000-0 -22012-4 0  9996,2 52847  53.2170 275.6240 0001209  74.0200 286.0925 15.08835945112922,6917.893,95.438,540.594,538.921,0.0
